{
    "links": {
        "self": "http://www.neowsapp.com/rest/v1/neo/3729230?api_key=iIulBulltgU6a56xZRHN4H3l9WmuAYTsLGpBGhQ2"
    },
    "id": "3729230",
    "neo_reference_id": "3729230",
    "name": "(2015 TC24)",
    "designation": "2015 TC24",
    "nasa_jpl_url": "http://ssd.jpl.nasa.gov/sbdb.cgi?sstr=3729230",
    "absolute_magnitude_h": 24.6,
    "estimated_diameter": {
        "kilometers": {
            "estimated_diameter_min": 0.0319561887,
            "estimated_diameter_max": 0.0714562102
        },
        "meters": {
            "estimated_diameter_min": 31.9561886721,
            "estimated_diameter_max": 71.4562101727
        },
        "miles": {
            "estimated_diameter_min": 0.0198566489,
            "estimated_diameter_max": 0.0444008168
        },
        "feet": {
            "estimated_diameter_min": 104.8431420431,
            "estimated_diameter_max": 234.436392583
        }
    },
    "is_potentially_hazardous_asteroid": false,
    "close_approach_data": [
        {
            "close_approach_date": "2013-10-06",
            "close_approach_date_full": "2013-Oct-06 04:26",
            "epoch_date_close_approach": 1381033560000,
            "relative_velocity": {
                "kilometers_per_second": "20.1161045017",
                "kilometers_per_hour": "72417.9762060426",
                "miles_per_hour": "44997.7141598046"
            },
            "miss_distance": {
                "astronomical": "0.1393557291",
                "lunar": "54.2093786199",
                "kilometers": "20847320.245657017",
                "miles": "12953924.1192081546"
            },
            "orbiting_body": "Earth"
        },
        {
            "close_approach_date": "2015-09-30",
            "close_approach_date_full": "2015-Sep-30 05:05",
            "epoch_date_close_approach": 1443589500000,
            "relative_velocity": {
                "kilometers_per_second": "16.7716936734",
                "kilometers_per_hour": "60378.0972243894",
                "miles_per_hour": "37516.6015781213"
            },
            "miss_distance": {
                "astronomical": "0.0300919596",
                "lunar": "11.7057722844",
                "kilometers": "4501693.060286052",
                "miles": "2797222.3587374376"
            },
            "orbiting_body": "Earth"
        },
        {
            "close_approach_date": "2017-09-22",
            "close_approach_date_full": "2017-Sep-22 19:11",
            "epoch_date_close_approach": 1506107460000,
            "relative_velocity": {
                "kilometers_per_second": "14.0115274234",
                "kilometers_per_hour": "50441.4987241493",
                "miles_per_hour": "31342.3856933471"
            },
            "miss_distance": {
                "astronomical": "0.0695955909",
                "lunar": "27.0726848601",
                "kilometers": "10411352.160031383",
                "miles": "6469314.2461557654"
            },
            "orbiting_body": "Earth"
        }
    ],
    "orbital_data": {
        "orbit_id": "5",
        "orbit_determination_date": "2017-04-06 08:31:33",
        "first_observation_date": "2015-10-08",
        "last_observation_date": "2015-10-17",
        "data_arc_in_days": 9,
        "observations_used": 34,
        "orbit_uncertainty": "8",
        "minimum_orbit_intersection": ".0144504",
        "jupiter_tisserand_invariant": "4.213",
        "epoch_osculation": "2457304.5",
        "eccentricity": ".5492551449310756",
        "semi_major_axis": "1.579516004852121",
        "inclination": "3.840742659913684",
        "ascending_node_longitude": "172.5215927911457",
        "orbital_period": "725.077574284208",
        "perihelion_distance": ".7119587126861159",
        "perihelion_argument": "113.1236965031466",
        "aphelion_distance": "2.447073297018127",
        "perihelion_time": "2457245.836500038107",
        "mean_anomaly": "29.12634555982494",
        "mean_motion": ".4964985992780011",
        "equinox": "J2000",
        "orbit_class": {
            "orbit_class_type": "APO",
            "orbit_class_description": "Near-Earth asteroid orbits which cross the Earth’s orbit similar to that of 1862 Apollo",
            "orbit_class_range": "a (semi-major axis) > 1.0 AU; q (perihelion) < 1.017 AU"
        }
    },
    "is_sentry_object": false
}